[{"OBJECT_NAME":"STARLINK-3742","OBJECT_ID":"2022-041AU","EPOCH":"2026-03-09T09:30:46.662624","MEAN_MOTION":15.08837913,"ECCENTRICITY":0.00014576,"INCLINATION":53.2181,"RA_OF_ASC_NODE":100.4375,"ARG_OF_PERICENTER":95.149,"MEAN_ANOMALY":264.9668,"EPHEMERIS_TYPE":0,"CLASSIFICATION_TYPE":"U","NORAD_CAT_ID":52303,"ELEMENT_SET_NO":999,"REV_AT_EPOCH":21568,"BSTAR":1.7588881e-5,"MEAN_MOTION_DOT":-8.0e-8,"MEAN_MOTION_DDOT":0},{"OBJECT_NAME":"CICERO 3","OBJECT_ID":"2017-042AA","EPOCH":"2026-03-09T22:34:09.559488","MEAN_MOTION":15.06999011,"ECCENTRICITY":0.00123402,"INCLINATION":97.4153,"RA_OF_ASC_NODE":238.2133,"ARG_OF_PERICENTER":85.148,"MEAN_ANOMALY":275.1157,"EPHEMERIS_TYPE":0,"CLASSIFICATION_TYPE":"U","NORAD_CAT_ID":42849,"ELEMENT_SET_NO":999,"REV_AT_EPOCH":47226,"BSTAR":0.00039473976,"MEAN_MOTION_DOT":5.861e-5,"MEAN_MOTION_DDOT":0}]
